ONEWEB-0527             
1 54642U 22166A   25231.74828578 -.00000057  00000+0 -17042-3 0  9990
2 54642  87.9252 304.1503 0001893  97.6293 262.5055 13.21828494131719
ONEWEB-0528             
1 54643U 22166B   25231.75460254 -.00000061  00000+0 -17830-3 0  9995
2 54643  87.9254 304.1509 0001906  95.5939 264.5412 13.21828053131728
ONEWEB-0539             
1 54644U 22166C   25231.56379514 -.00000042  00000+0 -13434-3 0  9998
2 54644  87.9247 304.1591 0002166  96.9384 263.1996 13.21825084131699
ONEWEB-0540             
1 54645U 22166D   25231.72163288 -.00000014  00000+0 -65947-4 0  9992
2 54645  87.9252 304.1629 0002192  95.7390 264.3993 13.21827465131708
ONEWEB-0542             
1 54646U 22166E   25231.72465128 -.00000039  00000+0 -12606-3 0  9991
2 54646  87.9245 304.1248 0002354  99.5833 260.5567 13.21827300131716
ONEWEB-0545             
1 54647U 22166F   25231.76722103  .00000034  00000+0  51601-4 0  9997
2 54647  87.9250 304.1337 0002538  94.6822 265.4602 13.21827766131686
ONEWEB-0580             
1 54648U 22166G   25231.74042947 -.00000111  00000+0 -29916-3 0  9998
2 54648  87.9253 304.1367 0002368 101.3790 258.7610 13.21826241131720
ONEWEB-0582             
1 54649U 22166H   25231.70729774  .00000015  00000+0  45207-5 0  9999
2 54649  87.9244 304.1397 0002510 101.5478 258.5938 13.21827478131698
ONEWEB-0583             
1 54650U 22166J   25231.71835885 -.00000005  00000+0 -43370-4 0  9992
2 54650  87.9251 304.1602 0002118  95.7328 264.4048 13.21826569131709
ONEWEB-0584             
1 54651U 22166K   25232.26871218  .00000016  00000+0  76125-5 0  9999
2 54651  87.9251 304.0350 0002349 103.2604 256.8792 13.21827501132234
ONEWEB-0585             
1 54652U 22166L   25231.76408371  .00000013  00000+0 -75651-7 0  9993
2 54652  87.9250 304.1216 0001864  98.1474 261.9872 13.21825621131702
ONEWEB-0586             
1 54653U 22166M   25232.23087696  .00000076  00000+0  15200-3 0  9998
2 54653  87.9254 304.0530 0002189  97.5231 262.6151 13.21826806132233
ONEWEB-0587             
1 54654U 22166N   25231.71041955 -.00000003  00000+0 -39401-4 0  9991
2 54654  87.9254 304.1045 0001773  97.8382 262.2954 13.21828979131851
ONEWEB-0589             
1 54655U 22166P   25231.69784346  .00000047  00000+0  81077-4 0  9999
2 54655  87.9253 304.1512 0002792 106.3116 253.8325 13.21827256131713
ONEWEB-0590             
1 54656U 22166Q   25232.25122623 -.00000010  00000+0 -55318-4 0  9998
2 54656  87.9249 304.0179 0001903 112.0323 248.1013 13.21824136132237
ONEWEB-0591             
1 54657U 22166R   25231.73411051 -.00000093  00000+0 -25631-3 0  9992
2 54657  87.9251 304.1442 0002122 100.2130 259.9244 13.21826686131736
ONEWEB-0592             
1 54658U 22166S   25231.73726801 -.00000115  00000+0 -30984-3 0  9997
2 54658  87.9258 304.0966 0002099 101.3896 258.7474 13.21826592131613
