[{"OBJECT_NAME":"ONEWEB-0527","OBJECT_ID":"2022-166A","EPOCH":"2025-08-19T17:57:31.891392","MEAN_MOTION":13.21828494,"ECCENTRICITY":0.0001893,"INCLINATION":87.9252,"RA_OF_ASC_NODE":304.1503,"ARG_OF_PERICENTER":97.6293,"MEAN_ANOMALY":262.5055,"EPHEMERIS_TYPE":0,"CLASSIFICATION_TYPE":"U","NORAD_CAT_ID":54642,"ELEMENT_SET_NO":999,"REV_AT_EPOCH":13171,"BSTAR":-0.00017042,"MEAN_MOTION_DOT":-5.7e-7,"MEAN_MOTION_DDOT":0},{"OBJECT_NAME":"ONEWEB-0528","OBJECT_ID":"2022-166B","EPOCH":"2025-08-19T18:06:37.659456","MEAN_MOTION":13.21828053,"ECCENTRICITY":0.0001906,"INCLINATION":87.9254,"RA_OF_ASC_NODE":304.1509,"ARG_OF_PERICENTER":95.5939,"MEAN_ANOMALY":264.5412,"EPHEMERIS_TYPE":0,"CLASSIFICATION_TYPE":"U","NORAD_CAT_ID":54643,"ELEMENT_SET_NO":999,"REV_AT_EPOCH":13172,"BSTAR":-0.0001783,"MEAN_MOTION_DOT":-6.1e-7,"MEAN_MOTION_DDOT":0},{"OBJECT_NAME":"ONEWEB-0539","OBJECT_ID":"2022-166C","EPOCH":"2025-08-19T13:31:51.900096","MEAN_MOTION":13.21825084,"ECCENTRICITY":0.0002166,"INCLINATION":87.9247,"RA_OF_ASC_NODE":304.1591,"ARG_OF_PERICENTER":96.9384,"MEAN_ANOMALY":263.1996,"EPHEMERIS_TYPE":0,"CLASSIFICATION_TYPE":"U","NORAD_CAT_ID":54644,"ELEMENT_SET_NO":999,"REV_AT_EPOCH":13169,"BSTAR":-0.00013434,"MEAN_MOTION_DOT":-4.2e-7,"MEAN_MOTION_DDOT":0},{"OBJECT_NAME":"ONEWEB-0540","OBJECT_ID":"2022-166D","EPOCH":"2025-08-19T17:19:09.080832","MEAN_MOTION":13.21827465,"ECCENTRICITY":0.0002192,"INCLINATION":87.9252,"RA_OF_ASC_NODE":304.1629,"ARG_OF_PERICENTER":95.739,"MEAN_ANOMALY":264.3993,"EPHEMERIS_TYPE":0,"CLASSIFICATION_TYPE":"U","NORAD_CAT_ID":54645,"ELEMENT_SET_NO":999,"REV_AT_EPOCH":13170,"BSTAR":-6.5947e-5,"MEAN_MOTION_DOT":-1.4e-7,"MEAN_MOTION_DDOT":0},{"OBJECT_NAME":"ONEWEB-0542","OBJECT_ID":"2022-166E","EPOCH":"2025-08-19T17:23:29.870592","MEAN_MOTION":13.218273,"ECCENTRICITY":0.0002354,"INCLINATION":87.9245,"RA_OF_ASC_NODE":304.1248,"ARG_OF_PERICENTER":99.5833,"MEAN_ANOMALY":260.5567,"EPHEMERIS_TYPE":0,"CLASSIFICATION_TYPE":"U","NORAD_CAT_ID":54646,"ELEMENT_SET_NO":999,"REV_AT_EPOCH":13171,"BSTAR":-0.00012606,"MEAN_MOTION_DOT":-3.9e-7,"MEAN_MOTION_DDOT":0},{"OBJECT_NAME":"ONEWEB-0545","OBJECT_ID":"2022-166F","EPOCH":"2025-08-19T18:24:47.896992","MEAN_MOTION":13.21827766,"ECCENTRICITY":0.0002538,"INCLINATION":87.925,"RA_OF_ASC_NODE":304.1337,"ARG_OF_PERICENTER":94.6822,"MEAN_ANOMALY":265.4602,"EPHEMERIS_TYPE":0,"CLASSIFICATION_TYPE":"U","NORAD_CAT_ID":54647,"ELEMENT_SET_NO":999,"REV_AT_EPOCH":13168,"BSTAR":5.1601e-5,"MEAN_MOTION_DOT":3.4e-7,"MEAN_MOTION_DDOT":0},{"OBJECT_NAME":"ONEWEB-0580","OBJECT_ID":"2022-166G","EPOCH":"2025-08-19T17:46:13.106208","MEAN_MOTION":13.21826241,"ECCENTRICITY":0.0002368,"INCLINATION":87.9253,"RA_OF_ASC_NODE":304.1367,"ARG_OF_PERICENTER":101.379,"MEAN_ANOMALY":258.761,"EPHEMERIS_TYPE":0,"CLASSIFICATION_TYPE":"U","NORAD_CAT_ID":54648,"ELEMENT_SET_NO":999,"REV_AT_EPOCH":13172,"BSTAR":-0.00029916,"MEAN_MOTION_DOT":-1.11e-6,"MEAN_MOTION_DDOT":0},{"OBJECT_NAME":"ONEWEB-0582","OBJECT_ID":"2022-166H","EPOCH":"2025-08-19T16:58:30.524736","MEAN_MOTION":13.21827478,"ECCENTRICITY":0.000251,"INCLINATION":87.9244,"RA_OF_ASC_NODE":304.1397,"ARG_OF_PERICENTER":101.5478,"MEAN_ANOMALY":258.5938,"EPHEMERIS_TYPE":0,"CLASSIFICATION_TYPE":"U","NORAD_CAT_ID":54649,"ELEMENT_SET_NO":999,"REV_AT_EPOCH":13169,"BSTAR":4.5207e-6,"MEAN_MOTION_DOT":1.5e-7,"MEAN_MOTION_DDOT":0},{"OBJECT_NAME":"ONEWEB-0583","OBJECT_ID":"2022-166J","EPOCH":"2025-08-19T17:14:26.204640","MEAN_MOTION":13.21826569,"ECCENTRICITY":0.0002118,"INCLINATION":87.9251,"RA_OF_ASC_NODE":304.1602,"ARG_OF_PERICENTER":95.7328,"MEAN_ANOMALY":264.4048,"EPHEMERIS_TYPE":0,"CLASSIFICATION_TYPE":"U","NORAD_CAT_ID":54650,"ELEMENT_SET_NO":999,"REV_AT_EPOCH":13170,"BSTAR":-4.337e-5,"MEAN_MOTION_DOT":-5.0e-8,"MEAN_MOTION_DDOT":0},{"OBJECT_NAME":"ONEWEB-0584","OBJECT_ID":"2022-166K","EPOCH":"2025-08-20T06:26:56.732352","MEAN_MOTION":13.21827501,"ECCENTRICITY":0.0002349,"INCLINATION":87.9251,"RA_OF_ASC_NODE":304.035,"ARG_OF_PERICENTER":103.2604,"MEAN_ANOMALY":256.8792,"EPHEMERIS_TYPE":0,"CLASSIFICATION_TYPE":"U","NORAD_CAT_ID":54651,"ELEMENT_SET_NO":999,"REV_AT_EPOCH":13223,"BSTAR":7.6125e-6,"MEAN_MOTION_DOT":1.6e-7,"MEAN_MOTION_DDOT":0},{"OBJECT_NAME":"ONEWEB-0585","OBJECT_ID":"2022-166L","EPOCH":"2025-08-19T18:20:16.832544","MEAN_MOTION":13.21825621,"ECCENTRICITY":0.0001864,"INCLINATION":87.925,"RA_OF_ASC_NODE":304.1216,"ARG_OF_PERICENTER":98.1474,"MEAN_ANOMALY":261.9872,"EPHEMERIS_TYPE":0,"CLASSIFICATION_TYPE":"U","NORAD_CAT_ID":54652,"ELEMENT_SET_NO":999,"REV_AT_EPOCH":13170,"BSTAR":-7.5651e-8,"MEAN_MOTION_DOT":1.3e-7,"MEAN_MOTION_DDOT":0},{"OBJECT_NAME":"ONEWEB-0586","OBJECT_ID":"2022-166M","EPOCH":"2025-08-20T05:32:27.769344","MEAN_MOTION":13.21826806,"ECCENTRICITY":0.0002189,"INCLINATION":87.9254,"RA_OF_ASC_NODE":304.053,"ARG_OF_PERICENTER":97.5231,"MEAN_ANOMALY":262.6151,"EPHEMERIS_TYPE":0,"CLASSIFICATION_TYPE":"U","NORAD_CAT_ID":54653,"ELEMENT_SET_NO":999,"REV_AT_EPOCH":13223,"BSTAR":0.000152,"MEAN_MOTION_DOT":7.6e-7,"MEAN_MOTION_DDOT":0},{"OBJECT_NAME":"ONEWEB-0587","OBJECT_ID":"2022-166N","EPOCH":"2025-08-19T17:03:00.249120","MEAN_MOTION":13.21828979,"ECCENTRICITY":0.0001773,"INCLINATION":87.9254,"RA_OF_ASC_NODE":304.1045,"ARG_OF_PERICENTER":97.8382,"MEAN_ANOMALY":262.2954,"EPHEMERIS_TYPE":0,"CLASSIFICATION_TYPE":"U","NORAD_CAT_ID":54654,"ELEMENT_SET_NO":999,"REV_AT_EPOCH":13185,"BSTAR":-3.9401e-5,"MEAN_MOTION_DOT":-3.0e-8,"MEAN_MOTION_DDOT":0},{"OBJECT_NAME":"ONEWEB-0589","OBJECT_ID":"2022-166P","EPOCH":"2025-08-19T16:44:53.674944","MEAN_MOTION":13.21827256,"ECCENTRICITY":0.0002792,"INCLINATION":87.9253,"RA_OF_ASC_NODE":304.1512,"ARG_OF_PERICENTER":106.3116,"MEAN_ANOMALY":253.8325,"EPHEMERIS_TYPE":0,"CLASSIFICATION_TYPE":"U","NORAD_CAT_ID":54655,"ELEMENT_SET_NO":999,"REV_AT_EPOCH":13171,"BSTAR":8.1077e-5,"MEAN_MOTION_DOT":4.7e-7,"MEAN_MOTION_DDOT":0},{"OBJECT_NAME":"ONEWEB-0590","OBJECT_ID":"2022-166Q","EPOCH":"2025-08-20T06:01:45.946272","MEAN_MOTION":13.21824136,"ECCENTRICITY":0.0001903,"INCLINATION":87.9249,"RA_OF_ASC_NODE":304.0179,"ARG_OF_PERICENTER":112.0323,"MEAN_ANOMALY":248.1013,"EPHEMERIS_TYPE":0,"CLASSIFICATION_TYPE":"U","NORAD_CAT_ID":54656,"ELEMENT_SET_NO":999,"REV_AT_EPOCH":13223,"BSTAR":-5.5318e-5,"MEAN_MOTION_DOT":-1.0e-7,"MEAN_MOTION_DDOT":0},{"OBJECT_NAME":"ONEWEB-0591","OBJECT_ID":"2022-166R","EPOCH":"2025-08-19T17:37:07.148064","MEAN_MOTION":13.21826686,"ECCENTRICITY":0.0002122,"INCLINATION":87.9251,"RA_OF_ASC_NODE":304.1442,"ARG_OF_PERICENTER":100.213,"MEAN_ANOMALY":259.9244,"EPHEMERIS_TYPE":0,"CLASSIFICATION_TYPE":"U","NORAD_CAT_ID":54657,"ELEMENT_SET_NO":999,"REV_AT_EPOCH":13173,"BSTAR":-0.00025631,"MEAN_MOTION_DOT":-9.3e-7,"MEAN_MOTION_DDOT":0},{"OBJECT_NAME":"ONEWEB-0592","OBJECT_ID":"2022-166S","EPOCH":"2025-08-19T17:41:39.956064","MEAN_MOTION":13.21826592,"ECCENTRICITY":0.0002099,"INCLINATION":87.9258,"RA_OF_ASC_NODE":304.0966,"ARG_OF_PERICENTER":101.3896,"MEAN_ANOMALY":258.7474,"EPHEMERIS_TYPE":0,"CLASSIFICATION_TYPE":"U","NORAD_CAT_ID":54658,"ELEMENT_SET_NO":999,"REV_AT_EPOCH":13161,"BSTAR":-0.00030984,"MEAN_MOTION_DOT":-1.15e-6,"MEAN_MOTION_DDOT":0}]
